{
    "links": {
        "self": "http://www.neowsapp.com/rest/v1/neo/3825099?api_key=iIulBulltgU6a56xZRHN4H3l9WmuAYTsLGpBGhQ2"
    },
    "id": "3825099",
    "neo_reference_id": "3825099",
    "name": "(2018 LF1)",
    "designation": "2018 LF1",
    "nasa_jpl_url": "http://ssd.jpl.nasa.gov/sbdb.cgi?sstr=3825099",
    "absolute_magnitude_h": 24.5,
    "estimated_diameter": {
        "kilometers": {
            "estimated_diameter_min": 0.0334622374,
            "estimated_diameter_max": 0.0748238376
        },
        "meters": {
            "estimated_diameter_min": 33.4622374455,
            "estimated_diameter_max": 74.8238376074
        },
        "miles": {
            "estimated_diameter_min": 0.0207924639,
            "estimated_diameter_max": 0.0464933628
        },
        "feet": {
            "estimated_diameter_min": 109.7842471007,
            "estimated_diameter_max": 245.4850393757
        }
    },
    "is_potentially_hazardous_asteroid": false,
    "close_approach_data": [
        {
            "close_approach_date": "2018-06-16",
            "close_approach_date_full": "2018-Jun-16 23:47",
            "epoch_date_close_approach": 1529192820000,
            "relative_velocity": {
                "kilometers_per_second": "13.973031088",
                "kilometers_per_hour": "50302.911916935",
                "miles_per_hour": "31256.2732408311"
            },
            "miss_distance": {
                "astronomical": "0.0400253447",
                "lunar": "15.5698590883",
                "kilometers": "5987706.313135789",
                "miles": "3720588.1770163282"
            },
            "orbiting_body": "Earth"
        }
    ],
    "orbital_data": {
        "orbit_id": "8",
        "orbit_determination_date": "2018-07-24 06:23:56",
        "first_observation_date": "2018-06-05",
        "last_observation_date": "2018-06-15",
        "data_arc_in_days": 10,
        "observations_used": 58,
        "orbit_uncertainty": "8",
        "minimum_orbit_intersection": ".0400201",
        "jupiter_tisserand_invariant": "3.639",
        "epoch_osculation": "2458277.5",
        "eccentricity": ".5771856008898248",
        "semi_major_axis": "1.973070379746074",
        "inclination": "4.823653352244702",
        "ascending_node_longitude": "238.1692568032468",
        "orbital_period": "1012.307121756479",
        "perihelion_distance": ".8342425670144216",
        "perihelion_argument": "87.66801906474188",
        "aphelion_distance": "3.111898192477727",
        "perihelion_time": "2458329.265287864685",
        "mean_anomaly": "341.5910574658888",
        "mean_motion": ".3556233007383718",
        "equinox": "J2000",
        "orbit_class": {
            "orbit_class_type": "APO",
            "orbit_class_description": "Near-Earth asteroid orbits which cross the Earth’s orbit similar to that of 1862 Apollo",
            "orbit_class_range": "a (semi-major axis) > 1.0 AU; q (perihelion) < 1.017 AU"
        }
    },
    "is_sentry_object": false
}